OBJECT_NAME,OBJECT_ID,EPOCH,MEAN_MOTION,ECCENTRICITY,INCLINATION,RA_OF_ASC_NODE,ARG_OF_PERICENTER,MEAN_ANOMALY,EPHEMERIS_TYPE,CLASSIFICATION_TYPE,NORAD_CAT_ID,ELEMENT_SET_NO,REV_AT_EPOCH,BSTAR,MEAN_MOTION_DOT,MEAN_MOTION_DDOT
BEIDOU-2 IGSO-5 (C10),2011-073A,2026-06-05T07:06:24.221088,1.00275849,.01134324,47.7011,271.6946,221.7167,318.6629,0,U,37948,999,5301,0,-.159E-5,0
LUCH 5A (SDCM/PRN 140),2011-074B,2026-06-05T02:19:57.178848,1.00269911,.00024819,8.7230,73.9855,9.1974,12.3602,0,U,37951,999,5293,0,-.39E-6,0
BEIDOU-2 G5 (C05),2012-008A,2026-06-05T03:31:48.160416,1.00269511,.00096131,3.5438,69.7718,276.3406,19.1300,0,U,38091,999,5224,0,.69E-6,0
BEIDOU-2 M3 (C11),2012-018A,2026-06-04T20:07:39.198432,1.86230146,.00199067,55.7691,305.2911,274.9858,84.7727,0,U,38250,999,9571,0,-.57E-6,0
SES-5 (EGNOS/PRN 136),2012-036A,2026-06-04T23:51:04.834944,1.00271985,.00021513,0.0499,310.6232,122.2129,183.3480,0,U,38652,999,4433,0,.46E-6,0
BEIDOU-2 M6 (C14),2012-050B,2026-06-05T00:25:27.959808,1.86231028,.0013929,56.5339,63.2969,355.3451,4.6688,0,U,38775,999,9308,0,-.39E-6,0
GSAT-10 (GAGAN/PRN 128),2012-051B,2026-06-05T03:38:40.002432,1.00272286,.00080703,0.0217,261.4881,186.6616,303.1346,0,U,38779,999,4997,0,-.153E-5,0
GPS BIIF-3  (PRN 24),2012-053A,2026-06-04T08:29:01.163616,2.00567337,.01795711,53.5835,144.1250,65.5761,296.2750,0,U,38833,999,9918,0,.65E-6,0
GSAT0103 (GALILEO-FM3),2012-055A,2026-06-03T23:37:05.593728,1.70473522,.00051737,55.7975,101.9078,302.0850,57.8240,0,U,38857,999,8478,0,.12E-6,0
LUCH 5B (SDCM/PRN 125),2012-061A,2026-06-05T01:28:33.080736,1.00274355,.00016578,10.4553,49.9998,139.2463,70.0738,0,U,38977,999,4948,0,-.128E-5,0
COSMOS 2485 (747),2013-019A,2026-06-05T04:17:03.431616,2.13103447,.00235024,65.4134,74.0071,235.0569,124.7432,0,U,39155,999,10202,0,-.7E-7,0
GPS BIIF-4  (PRN 27),2013-023A,2026-06-03T05:21:02.647584,2.00563651,.01416367,54.5153,269.5426,50.9649,310.3017,0,U,39166,999,9560,0,-.27E-6,0
IRNSS-1A,2013-034A,2026-05-22T20:37:38.469792,1.00280263,.00166187,35.6649,64.2334,185.3754,355.4646,0,U,39199,999,4711,0,.59E-6,0
GPS BIIF-5  (PRN 30),2014-008A,2026-06-05T05:15:01.951776,2.00559076,.00842376,53.6527,149.8078,231.0835,128.1616,0,U,39533,999,8944,0,.77E-6,0
ASTRA 5B (EGNOS/PRN 123),2014-011B,2026-06-05T06:46:48.598752,1.00273279,.00022573,0.0612,313.2907,114.6228,311.0342,0,U,39617,999,4454,0,.15E-5,0
COSMOS 2492 (754),2014-012A,2026-06-05T03:17:51.149184,2.13103532,.00105805,65.3049,314.3450,327.2307,32.6967,0,U,39620,999,9498,0,-.33E-6,0
IRNSS-1B,2014-017A,2026-05-19T20:39:38.653920,1.00280229,.00242269,28.9733,240.8911,185.2284,176.5740,0,U,39635,999,4451,0,.103E-5,0
LUCH 5V (SDCM/PRN 141),2014-023A,2026-06-05T04:27:21.852576,1.00268963,.00027941,5.1037,69.8704,27.3598,317.9589,0,U,39727,999,4423,0,-.257E-5,0
GPS BIIF-6  (PRN 06),2014-026A,2026-06-04T23:53:40.403328,2.00562000,.00382778,56.5044,331.9921,326.7551,33.0091,0,U,39741,999,8829,0,-.66E-6,0
COSMOS 2500 (755),2014-032A,2026-06-05T07:22:31.262592,2.13106228,.00069216,65.2399,314.0875,182.6987,177.2913,0,U,40001,999,9320,0,-.32E-6,0
GPS BIIF-7  (PRN 09),2014-045A,2026-06-05T02:05:36.772224,2.00557683,.00328178,55.3456,88.9470,118.4202,241.9011,0,U,40105,999,8583,0,.4E-7,0
GSAT0201 (GALILEO 5),2014-050A,2026-06-02T20:44:38.047200,1.85520153,.16724063,48.8915,274.0236,178.8372,181.6513,0,U,40128,999,7805,0,-.5E-6,0
GSAT0202 (GALILEO 6),2014-050B,2026-06-04T04:44:57.496416,1.85520721,.1673799,48.9068,273.0544,179.6143,180.5799,0,U,40129,999,8024,0,-.46E-6,0
IRNSS-1C,2014-061A,2026-06-04T18:56:00.662784,1.00271289,.0022549,6.4870,89.1625,1.0591,170.0417,0,U,40269,999,4256,0,-.151E-5,0
GPS BIIF-8  (PRN 03),2014-068A,2026-06-04T22:59:43.110240,2.00575574,.00667425,56.9793,31.4259,70.1188,290.6558,0,U,40294,999,8496,0,-.69E-6,0
COSMOS 2501 (702K),2014-075A,2026-06-05T02:23:58.838784,2.13101471,.00224347,63.6155,190.7905,212.0821,147.8495,0,U,40315,999,8959,0,.7E-6,0
GPS BIIF-9  (PRN 26),2015-013A,2026-06-05T02:18:11.228256,2.00552074,.01093013,53.1687,204.6778,40.1042,320.7783,0,U,40534,999,8158,0,.46E-6,0
GSAT0203 (GALILEO 7),2015-017A,2026-06-04T07:23:32.055360,1.70476247,.00020993,56.7908,341.9466,283.9849,76.0032,0,U,40544,999,6898,0,-.72E-6,0
GSAT0204 (GALILEO 8),2015-017B,2026-06-03T23:27:08.772768,1.70475856,.0001793,56.7984,341.9741,255.5555,104.4361,0,U,40545,999,3202,0,-.73E-6,0
